STARLINK-1908_new
1 16747C 20074J   21326.07641544  .00006526  00000-0  43730-3 0  3269
2 16747  53.0516 163.3888 0001910  72.7537 146.5806 15.06386636    14
STARLINK-1908_old
1 26747C 20074J   21325.15087101  .00004517  00000-0  30272-3 0  3254
2 26747  53.0512 167.5440 0001880  71.1838 166.1451 15.06384265    13
